[{"OBJECT_NAME":"STARLINK-31595","OBJECT_ID":"2024-050V","EPOCH":"2026-03-09T18:50:55.157568","MEAN_MOTION":15.30215116,"ECCENTRICITY":0.00014207,"INCLINATION":53.157,"RA_OF_ASC_NODE":180.5315,"ARG_OF_PERICENTER":96.4959,"MEAN_ANOMALY":263.6204,"EPHEMERIS_TYPE":0,"CLASSIFICATION_TYPE":"U","NORAD_CAT_ID":59273,"ELEMENT_SET_NO":999,"REV_AT_EPOCH":11056,"BSTAR":0.00081891466,"MEAN_MOTION_DOT":0.00023984,"MEAN_MOTION_DDOT":0},{"OBJECT_NAME":"YAM-7","OBJECT_ID":"2024-149AN","EPOCH":"2026-03-09T17:13:55.117920","MEAN_MOTION":15.30304554,"ECCENTRICITY":0.00019733,"INCLINATION":97.3828,"RA_OF_ASC_NODE":149.4631,"ARG_OF_PERICENTER":296.5121,"MEAN_ANOMALY":63.5918,"EPHEMERIS_TYPE":0,"CLASSIFICATION_TYPE":"U","NORAD_CAT_ID":60504,"ELEMENT_SET_NO":999,"REV_AT_EPOCH":8683,"BSTAR":0.00030984439,"MEAN_MOTION_DOT":9.009e-5,"MEAN_MOTION_DDOT":0}]
