STARLINK-31595          
1 59273U 24050V   26068.78536061  .00023984  00000+0  81891-3 0  9990
2 59273  53.1570 180.5315 0001421  96.4959 263.6204 15.30215116110563
YAM-7                   
1 60504U 24149AN  26068.71799904  .00009009  00000+0  30984-3 0  9997
2 60504  97.3828 149.4631 0001973 296.5121  63.5918 15.30304554 86835
